0 FENGYUN 1C DEB
1 32163U 99025CTH 13285.85762051  .00000914  00000-0  39070-3 0  2149
2 32163 099.5363 157.2174 0063640 163.0670 197.1693 14.26663405323158
0 FENGYUN 1C DEB
1 32163U 99025CTH 13287.89148670  .00000972  00000-0  41430-3 0  2158
2 32163 099.5368 159.4294 0063920 157.2342 203.1692 14.26668467323444
0 FENGYUN 1C DEB
1 32163U 99025CTH 13290.41625294  .00001028  00000-0  43672-3 0  2166
2 32163 099.5284 162.1634 0064541 150.2174 210.2771 14.26675028323804
0 FENGYUN 1C DEB
1 32163U 99025CTH 13292.87086957  .00001364  00000-0  57213-3 0  2175
2 32163 099.5289 164.8323 0064691 143.3877 217.1709 14.26683390324159
0 FENGYUN 1C DEB
1 32163U 99025CTH 13295.88652964  .00001317  00000-0  55314-3 0  2185
2 32163 099.5288 168.1142 0064718 134.8112 225.8353 14.26691231324582
